SatCatId,ObjectName,LaunchYear,OrbitalPeriod,LaunchMass,StatusCode,Inclination,Status,UcsData,OrbitClassEstimated,LaunchSiteCountry,Owner,UseType,Purpose,LaunchVehicleClass,TLE1,TLE2,MeanMotion,Eccentricity,OrbitClass
27436,COSMOS 2389,2002,104.73,-1.0,-,82.95,Inactive,0,LEO,Russia,Russia/USSR,Unknown,Unknown,Kosmos,1 27436U 02026A   23046.57740068  .00000126  00000+0  11488-3 0  9997,2 27436  82.9546 350.0926 0047640  58.1952 114.6701 13.74997687 39771,13.74997687,0.004764,LEO
27438,INTELSAT 905 (IS-905),2002,1436.11,4723.0,+,3.66,Active,1,GSO,French Guiana,INTELSAT,Commercial,Communications,Ariane,1 27438U 02027A   23046.47683404 -.00000183  00000+0  00000+0 0  9997,2 27438   3.6672  84.0461 0002677 254.0057 314.3110  1.00270628 39155,1.00270628,0.0002677,GSO
27441,EXPRESS-A4,2002,1451.58,-1.0,-,9.49,Inactive,0,GSO,Kazakhstan,Russia/USSR,Unknown,Unknown,Unknown,1 27441U 02029A   23046.56935274  .00000074  00000+0  00000+0 0  9996,2 27441   9.4957  44.9590 0003470  68.9651 107.3889  0.99202609 75683,0.99202609,0.000347,GSO
27445,GALAXY 3C (G-3C),2002,1436.12,4860.0,+,0.59,Active,1,GSO,Sea Launch Platform,USA,Commercial,Communications,Zenit,1 27445U 02030A   23046.53488584 -.00000148  00000+0  00000+0 0  9999,2 27445   0.5899  92.2792 0000729 264.3107 246.3646  1.00270743 34289,1.00270743,7.29e-05,GEO
27453,NOAA 17,2002,101.04,-1.0,-,98.7,Inactive,0,LEO,USA,USA,Unknown,Unknown,Titan,1 27453U 02032A   23046.56105164  .00000542  00000+0  24910-3 0  9990,2 27453  98.7024 354.3416 0010756 287.3509  72.6494 14.25220249 73487,14.25220249,0.0010756,LEO
27460,EUTELSAT 5 WEST A,2002,1464.11,4050.0,-,2.91,Inactive,1,GSO,French Guiana,EUTELSAT,Commercial,Communications,Ariane,1 27460U 02035A   23046.56715872 -.00000008  00000+0  00000+0 0  9992,2 27460   2.9110  86.5702 0011505 338.3946  15.5669  0.98352951 75398,0.98352951,0.0011505,GSO
27461,N-STAR C,2002,1455.24,-1.0,-,8.55,Inactive,0,GSO,French Guiana,Japan,Unknown,Unknown,Ariane,1 27461U 02035B   23046.12848108 -.00000051  00000+0  00000+0 0  9992,2 27461   8.5558  53.4499 0005280 181.8577 340.6685  0.98953407 75389,0.98953407,0.000528,GSO
27464,COSMOS 2390,2002,115.7,225.0,+,82.48,Active,1,LEO,Russia,Russia/USSR,Military,Communications,Kosmos,1 27464U 02036A   23046.59572243  .00000009  00000+0 -99050-5 0  9993,2 27464  82.4845  26.2496 0026272  43.8007 316.5158 12.44585429936355,12.44585429,0.0026272,LEO
27465,COSMOS 2391,2002,115.67,225.0,+,82.48,Active,1,LEO,Russia,Russia/USSR,Military,Communications,Kosmos,1 27465U 02036B   23046.60538116  .00000016  00000+0  43505-4 0  9997,2 27465  82.4848  23.2780 0027103  39.3826 320.9223 12.44906623936585,12.44906623,0.0027103,LEO
27470,COSMOS 2392,2002,119.33,-1.0,UNK,63.41,Inactive,0,LEO,Kazakhstan,Russia/USSR,Unknown,Unknown,Proton,1 27470U 02037A   23046.58139084 -.00000300  00000+0 -17060-2 0  9995,2 27470  63.4143 332.7903 0557175 354.9410 177.1125 12.06787468906341,12.06787468,0.0557175,LEO
27499,EUTELSAT 33D,2002,1449.85,-1.0,-,5.55,Inactive,0,GSO,USA,EUTELSAT,Unknown,Unknown,Atlas,1 27499U 02038A   23046.56473670  .00000094  00000+0  00000+0 0  9998,2 27499   5.5582  75.1971 0003526 287.8202 213.6662  0.99320509 38849,0.99320509,0.0003526,GSO
27501,ECHOSTAR 8,2002,1461.77,-1.0,-,5.8,Inactive,0,GSO,Kazakhstan,USA,Unknown,Unknown,Proton,1 27501U 02039A   23046.56795493 -.00000206  00000+0  00000+0 0  9999,2 27501   5.8034  73.9469 0010203   4.3976  83.6995  0.98511121 40068,0.98511121,0.0010203,GSO
27508,EUTELSAT 36 WEST A,2002,1465.03,-1.0,-,4.15,Inactive,0,GSO,French Guiana,EUTELSAT,Unknown,Unknown,Ariane,1 27508U 02040A   23046.14771630  .00000022  00000+0  00000+0 0  9994,2 27508   4.1526  81.8007 0006939 330.0844 212.2241  0.98291442 74672,0.98291442,0.0006939,GSO
27509,METEOSAT-8 (MSG-1),2002,1470.83,2000.0,-,8.86,Inactive,1,GSO,French Guiana,EUMETSAT,Civil/Government,Earth Observation,Ariane,1 27509U 02040B   23046.19847448 -.00000129  00000+0  00000+0 0  9990,2 27509   8.8576  49.5755 0017881  40.5608 143.4286  0.97904035 75010,0.97904035,0.0017881,GSO
27513,INTELSAT 906 (IS-906),2002,1436.12,4723.0,+,2.69,Active,1,GSO,French Guiana,INTELSAT,Commercial,Communications,Ariane,1 27513U 02041A   23046.49487716  .00000017  00000+0  00000+0 0  9992,2 27513   2.6879  87.7024 0003367 216.6173  83.1856  1.00270614 74817,1.00270614,0.0003367,GSO
27516,KODAMA (DRTS),2002,1450.53,-1.0,-,8.85,Inactive,0,GSO,Japan,Japan,Unknown,Unknown,JAXA H,1 27516U 02042B   23046.12760944 -.00000034  00000+0  00000+0 0  9993,2 27516   8.8502  51.0487 0015794 205.3803 315.0827  0.99274574 33490,0.99274574,0.0015794,GSO
27525,KALPANA-1 (METSAT 1),2002,1464.34,-1.0,-,11.03,Inactive,0,GSO,India,India,Unknown,Unknown,PSLV,1 27525U 02043A   23046.53504062 -.00000099  00000+0  00000+0 0  9997,2 27525  11.0290  41.3504 0006380  85.0983  55.6603  0.98338699 74510,0.98338699,0.000638,GSO
27528,HISPASAT 30W-4,2002,1455.64,3288.0,-,3.42,Inactive,1,GSO,USA,Spain,Commercial/Government/Military,Communications,Atlas,1 27528U 02044A   23046.49574882  .00000071  00000+0  00000+0 0  9992,2 27528   3.4194  84.3536 0043442 103.8000 204.5186  0.98925794 74690,0.98925794,0.0043442,GSO
27534,NADEZHDA 7,2002,104.9,-1.0,-,82.94,Inactive,0,LEO,Russia,Russia/USSR,Unknown,Unknown,Kosmos,1 27534U 02046A   23046.56888807  .00000124  00000+0  11699-3 0  9993,2 27534  82.9382 150.4652 0037537 116.0570 255.5740 13.72778939 21493,13.72778939,0.0037537,LEO
27540,INTEGRAL,2002,3832.33,4000.0,+,81.36,Active,1,HEO,Kazakhstan,ESA,Government,Space Science,Proton,1 27540U 02048A   23044.65128542 -.00000169  00000+0  00000+0 0  9993,2 27540  81.3632  45.3856 8822150 294.3399  28.3999  0.37575101 22057,0.37575101,0.882215,HEO
27554,EUTELSAT 33B,2002,1437.62,-1.0,-,6.05,Inactive,0,GSO,USA,EUTELSAT,Unknown,Unknown,Delta,1 27554U 02051A   23046.13676175  .00000012  00000+0  00000+0 0  9993,2 27554   6.0492  72.2577 0014278 302.4852 246.0414  1.00165549 36586,1.00165549,0.0014278,GSO
27559,ALSAT 1,2002,97.74,-1.0,UNK,98.13,Inactive,0,LEO,Russia,Algeria,Unknown,Unknown,Kosmos,1 27559U 02054A   23046.36967175  .00002882  00000+0  45217-3 0  9999,2 27559  98.1288 197.1646 0021120 212.7879 147.2020 14.73284668 83626,14.73284668,0.002112,LEO
27560,MOZHAYETS,2002,98.73,-1.0,UNK,98.47,Inactive,0,LEO,Russia,Russia/USSR,Unknown,Unknown,Unknown,1 27560U 02054B   23046.57836612  .00002299  00000+0  49998-3 0  9997,2 27560  98.4732 219.2344 0040370 185.3208 174.7583 14.58524129 73513,14.58524129,0.004037,LEO
27561,RUBIN-3 & SL-8 R/B,2002,98.88,-1.0,UNK,98.52,Inactive,0,LEO,Russia,Germany,Unknown,Unknown,Unknown,1 27561U 02054C   23046.56433769  .00001453  00000+0  33460-3 0  9991,2 27561  98.5182 224.3161 0044761 280.3074  79.3079 14.56345935 73304,14.56345935,0.0044761,LEO
27566,TDRS 10,2002,1436.19,3180.0,+,8.65,Active,1,GSO,USA,USA,Government,Communications,Atlas,1 27566U 02055A   23046.61517580  .00000090  00000+0  00000+0 0  9993,2 27566   8.6488  48.5641 0007649 314.6825 192.5225  1.00266083 74020,1.00266083,0.0007649,GSO
27597,MIDORI II (ADEOS-II),2002,100.86,-1.0,-,98.64,Inactive,0,LEO,Japan,Japan,Unknown,Unknown,Unknown,1 27597U 02056A   23046.45623508  .00000936  00000+0  39662-3 0  9997,2 27597  98.6360 352.0285 0001865  55.8814 304.2544 14.27769375 50648,14.27769375,0.0001865,LEO
27598,FEDSAT,2002,100.78,-1.0,UNK,98.69,Inactive,0,LEO,Japan,Australia,Unknown,Unknown,Unknown,1 27598U 02056B   23046.41013318  .00000461  00000+0  20014-3 0  9990,2 27598  98.6920 355.5585 0008090 296.7990  63.2363 14.28889385 51793,14.28889385,0.000809,LEO
27599,WEOS,2002,100.72,-1.0,UNK,98.65,Inactive,0,LEO,Japan,Japan,Unknown,Unknown,JAXA H,1 27599U 02056C   23046.46031418  .00000634  00000+0  26431-3 0  9998,2 27599  98.6531 353.8910 0008749 280.5686  79.4510 14.29726072 52270,14.29726072,0.0008749,LEO
27600,MICRO LABSAT,2002,100.71,-1.0,-,98.65,Inactive,0,LEO,Japan,Japan,Unknown,Unknown,Unknown,1 27600U 02056D   23046.44013306  .00000541  00000+0  22730-3 0  9990,2 27600  98.6498 353.1975 0009677 276.8201  83.1880 14.29864385 52453,14.29864385,0.0009677,LEO
27603,NSS-6,2002,1436.13,4575.0,+,2.22,Active,1,GSO,French Guiana,SES,Commercial,Communications,Ariane,1 27603U 02057A   23046.54980016  .00000110  00000+0  00000+0 0  9990,2 27603   2.2246  88.8501 0003281 240.9810 203.8433  1.00269810 73835,1.0026981,0.0003281,GSO
27605,RUBIN-2 & SAFIR-M,2002,97.58,-1.0,-,64.55,Inactive,0,LEO,Kazakhstan,Germany,Unknown,Unknown,Dnepr,1 27605U 02058A   23046.35549691  .00001555  00000+0  23539-3 0  9992,2 27605  64.5537 266.2414 0079692 248.6231 110.6354 14.75788315 84636,14.75788315,0.0079692,LEO
27606,LATINSAT B,2002,97.76,-1.0,+,64.56,Active,1,LEO,Kazakhstan,Argentina,Commercial,Communications,Dnepr,1 27606U 02058B   23046.34909488  .00002353  00000+0  36340-3 0  9997,2 27606  64.5580  11.1770 0089972 254.2877 104.8285 14.73039398 82463,14.73039398,0.0089972,LEO
27607,SAUDISAT 1C (SO-50),2002,97.51,10.0,+,64.56,Active,1,LEO,Kazakhstan,Saudi Arabia,Government,Communications,Dnepr,1 27607U 02058C   23046.36456220  .00002490  00000+0  35707-3 0  9999,2 27607  64.5552 278.2842 0078126 248.3610 110.9158 14.76750939 84235,14.76750939,0.0078126,LEO
27608,UNISAT-2,2002,97.36,-1.0,-,64.56,Inactive,0,LEO,Kazakhstan,Italy,Unknown,Unknown,Dnepr,1 27608U 02058D   23046.51626208  .00003747  00000+0  50916-3 0  9997,2 27608  64.5552 180.5847 0060834 240.7494 118.7519 14.79013103 86371,14.79013103,0.0060834,LEO
27609,TRAILBLAZER 2,2002,97.36,-1.0,-,64.56,Inactive,0,LEO,Kazakhstan,USA,Unknown,Unknown,Minotaur,1 27609U 02058E   23046.55460310  .00001314  00000+0  19379-3 0  9998,2 27609  64.5561 126.5055 0045087 233.6968 125.9969 14.78982896 87466,14.78982896,0.0045087,LEO
27612,LATINSAT A,2002,97.27,-1.0,+,64.56,Active,1,LEO,Kazakhstan,Argentina,Commercial,Communications,Dnepr,1 27612U 02058H   23046.49679246  .00002821  00000+0  37885-3 0  9991,2 27612  64.5564 128.1752 0051572 236.7225 122.8933 14.80405167 87057,14.80405167,0.0051572,LEO
